start=new Date('2022-03-07T00:00:00.000Z').valueOf();
sats=[{"GP_ID":"198064877","PERIAPSIS":"545.957","MEAN_ANOMALY":"293.5131","COUNTRY_CODE":"US","EPOCH":"2022-03-06T04:19:02.997120","CLASSIFICATION_TYPE":"U","LAUNCH_DATE":"2020-01-29","INCLINATION":"53.0564","DECAY_DATE":null,"REF_FRAME":"TEME","REV_AT_EPOCH":"11628","SEMIMAJOR_AXIS":"6925.347","MEAN_ELEMENT_THEORY":"SGP4","PERIOD":"95.592","EPHEMERIS_TYPE":"0","APOAPSIS":"548.467","RA_OF_ASC_NODE":"341.0601","OBJECT_ID":"2020-006BB","OBJECT_TYPE":"PAYLOAD","TLE_LINE1":"1 45093U 20006BB  22065.17989580 -.00000849  00000-0 -38062-4 0  9997","BSTAR":"-0.00003806200000","ELEMENT_SET_NO":"999","MEAN_MOTION":"15.06400611","ARG_OF_PERICENTER":"66.6049","MEAN_MOTION_DDOT":"0.0000000000000","NORAD_CAT_ID":"45093","FILE":"3347638","ECCENTRICITY":"0.00018120","TLE_LINE2":"2 45093  53.0564 341.0601 0001812  66.6049 293.5131 15.06400611116280","RCS_SIZE":"LARGE","OBJECT_NAME":"STARLINK-1142","CENTER_NAME":"EARTH","TIME_SYSTEM":"UTC","SITE":"AFETR","MEAN_MOTION_DOT":"-0.00000849"},{"SEMIMAJOR_AXIS":"6925.438","PERIOD":"95.594","MEAN_ELEMENT_THEORY":"SGP4","EPHEMERIS_TYPE":"0","APOAPSIS":"548.530","RA_OF_ASC_NODE":"339.8049","OBJECT_ID":"2020-006BC","OBJECT_TYPE":"PAYLOAD","BSTAR":"0.00073265000000","TLE_LINE1":"1 45094U 20006BC  22065.46002656  .00010640  00000-0  73265-3 0  9991","ELEMENT_SET_NO":"999","MEAN_MOTION":"15.06370962","ARG_OF_PERICENTER":"91.6196","MEAN_MOTION_DDOT":"0.0000000000000","NORAD_CAT_ID":"45094","FILE":"3347638","ECCENTRICITY":"0.00017730","TLE_LINE2":"2 45094  53.0557 339.8049 0001773  91.6196 268.4996 15.06370962116332","RCS_SIZE":"LARGE","CENTER_NAME":"EARTH","OBJECT_NAME":"STARLINK-1146","TIME_SYSTEM":"UTC","SITE":"AFETR","MEAN_MOTION_DOT":"0.00010640","GP_ID":"198065629","PERIAPSIS":"546.075","MEAN_ANOMALY":"268.4996","COUNTRY_CODE":"US","EPOCH":"2022-03-06T11:02:26.294784","CLASSIFICATION_TYPE":"U","LAUNCH_DATE":"2020-01-29","INCLINATION":"53.0557","DECAY_DATE":null,"REF_FRAME":"TEME","REV_AT_EPOCH":"11633"},{"MEAN_MOTION_DOT":"-0.00006850","OBJECT_NAME":"STARLINK-1147","CENTER_NAME":"EARTH","TIME_SYSTEM":"UTC","SITE":"AFETR","TLE_LINE2":"2 45095  53.0533 339.7980 0001421  71.7661 288.3482 15.06422900116337","RCS_SIZE":"LARGE","FILE":"3347638","ECCENTRICITY":"0.00014210","NORAD_CAT_ID":"45095","MEAN_MOTION_DDOT":"0.0000000000000","ARG_OF_PERICENTER":"71.7661","ELEMENT_SET_NO":"999","MEAN_MOTION":"15.06422900","OBJECT_ID":"2020-006BD","OBJECT_TYPE":"PAYLOAD","TLE_LINE1":"1 45095U 20006BD  22065.46369227 -.00006850  00000-0 -44113-3 0  9992","BSTAR":"-0.00044113000000","RA_OF_ASC_NODE":"339.7980","APOAPSIS":"548.127","PERIOD":"95.591","MEAN_ELEMENT_THEORY":"SGP4","EPHEMERIS_TYPE":"0","SEMIMAJOR_AXIS":"6925.278","REF_FRAME":"TEME","REV_AT_EPOCH":"11633","DECAY_DATE":null,"INCLINATION":"53.0533","LAUNCH_DATE":"2020-01-29","CLASSIFICATION_TYPE":"U","EPOCH":"2022-03-06T11:07:43.012128","COUNTRY_CODE":"US","PERIAPSIS":"546.159","MEAN_ANOMALY":"288.3482","GP_ID":"198065377"},{"COUNTRY_CODE":"US","MEAN_ANOMALY":"299.9139","PERIAPSIS":"546.005","GP_ID":"198064127","DECAY_DATE":null,"REV_AT_EPOCH":"11632","REF_FRAME":"TEME","EPOCH":"2022-03-06T10:57:06.886080","LAUNCH_DATE":"2020-01-29","INCLINATION":"53.0533","CLASSIFICATION_TYPE":"U","BSTAR":"0.00021990000000","TLE_LINE1":"1 45096U 20006BE  22065.45632970  .00002996  00000-0  21990-3 0  9993","OBJECT_ID":"2020-006BE","OBJECT_TYPE":"PAYLOAD","RA_OF_ASC_NODE":"339.8324","ARG_OF_PERICENTER":"60.2019","MEAN_MOTION":"15.06409596","ELEMENT_SET_NO":"999","SEMIMAJOR_AXIS":"6925.319","APOAPSIS":"548.363","EPHEMERIS_TYPE":"0","PERIOD":"95.592","MEAN_ELEMENT_THEORY":"SGP4","SITE":"AFETR","TIME_SYSTEM":"UTC","OBJECT_NAME":"STARLINK-1152","CENTER_NAME":"EARTH","MEAN_MOTION_DOT":"0.00002996","NORAD_CAT_ID":"45096","MEAN_MOTION_DDOT":"0.0000000000000","RCS_SIZE":"LARGE","TLE_LINE2":"2 45096  53.0533 339.8324 0001702  60.2019 299.9139 15.06409596116325","ECCENTRICITY":"0.00017020","FILE":"3347638"},{"OBJECT_TYPE":"PAYLOAD","OBJECT_ID":"2020-006BG","TLE_LINE1":"1 45098U 20006BG  22065.17251387  .00019723  00000-0  13384-2 0  9996","BSTAR":"0.00133840000000","RA_OF_ASC_NODE":"341.1039","ARG_OF_PERICENTER":"76.5115","ELEMENT_SET_NO":"999","MEAN_MOTION":"15.06423853","SEMIMAJOR_AXIS":"6925.275","APOAPSIS":"548.318","MEAN_ELEMENT_THEORY":"SGP4","PERIOD":"95.591","EPHEMERIS_TYPE":"0","CENTER_NAME":"EARTH","OBJECT_NAME":"STARLINK-1184","TIME_SYSTEM":"UTC","SITE":"AFETR","MEAN_MOTION_DOT":"0.00019723","NORAD_CAT_ID":"45098","MEAN_MOTION_DDOT":"0.0000000000000","TLE_LINE2":"2 45098  53.0537 341.1039 0001700  76.5115 283.6064 15.06423853116289","RCS_SIZE":"LARGE","ECCENTRICITY":"0.00017000","FILE":"3347638","COUNTRY_CODE":"US","PERIAPSIS":"545.963","MEAN_ANOMALY":"283.6064","GP_ID":"198064377","DECAY_DATE":null,"REF_FRAME":"TEME","REV_AT_EPOCH":"11628","EPOCH":"2022-03-06T04:08:25.198368","LAUNCH_DATE":"2020-01-29","INCLINATION":"53.0537","CLASSIFICATION_TYPE":"U"},{"GP_ID":"198065129","COUNTRY_CODE":"US","PERIAPSIS":"545.867","MEAN_ANOMALY":"299.9902","EPOCH":"2022-03-06T11:18:20.875680","LAUNCH_DATE":"2020-01-29","INCLINATION":"53.0567","CLASSIFICATION_TYPE":"U","DECAY_DATE":null,"REF_FRAME":"TEME","REV_AT_EPOCH":"11633","SEMIMAJOR_AXIS":"6925.276","APOAPSIS":"548.416","PERIOD":"95.591","MEAN_ELEMENT_THEORY":"SGP4","EPHEMERIS_TYPE":"0","OBJECT_TYPE":"PAYLOAD","OBJECT_ID":"2020-006BH","TLE_LINE1":"1 45099U 20006BH  22065.47107495  .00008345  00000-0  57808-3 0  9998","BSTAR":"0.00057808000000","RA_OF_ASC_NODE":"339.7562","ARG_OF_PERICENTER":"60.1269","ELEMENT_SET_NO":"999","MEAN_MOTION":"15.06423519","NORAD_CAT_ID":"45099","MEAN_MOTION_DDOT":"0.0000000000000","TLE_LINE2":"2 45099  53.0567 339.7562 0001840  60.1269 299.9902 15.06423519116337","RCS_SIZE":"LARGE","ECCENTRICITY":"0.00018400","FILE":"3347638","OBJECT_NAME":"STARLINK-1186","CENTER_NAME":"EARTH","TIME_SYSTEM":"UTC","SITE":"AFETR","MEAN_MOTION_DOT":"0.00008345"},{"ARG_OF_PERICENTER":"60.3122","MEAN_MOTION":"15.06424981","ELEMENT_SET_NO":"999","BSTAR":"0.00058744000000","TLE_LINE1":"1 45100U 20006BJ  22065.23517188  .00008485  00000-0  58744-3 0  9994","OBJECT_ID":"2020-006BJ","OBJECT_TYPE":"PAYLOAD","RA_OF_ASC_NODE":"340.8028","APOAPSIS":"548.324","EPHEMERIS_TYPE":"0","PERIOD":"95.591","MEAN_ELEMENT_THEORY":"SGP4","SEMIMAJOR_AXIS":"6925.272","MEAN_MOTION_DOT":"0.00008485","SITE":"AFETR","TIME_SYSTEM":"UTC","OBJECT_NAME":"STARLINK-1193","CENTER_NAME":"EARTH","RCS_SIZE":"LARGE","TLE_LINE2":"2 45100  53.0563 340.8028 0001714  60.3122 299.8037 15.06424981116293","FILE":"3347638","ECCENTRICITY":"0.00017140","NORAD_CAT_ID":"45100","MEAN_MOTION_DDOT":"0.0000000000000","COUNTRY_CODE":"US","MEAN_ANOMALY":"299.8037","PERIAPSIS":"545.950","GP_ID":"198065878","REV_AT_EPOCH":"11629","REF_FRAME":"TEME","DECAY_DATE":null,"INCLINATION":"53.0563","LAUNCH_DATE":"2020-01-29","CLASSIFICATION_TYPE":"U","EPOCH":"2022-03-06T05:38:38.850432"},{"PERIOD":"95.591","MEAN_ELEMENT_THEORY":"SGP4","EPHEMERIS_TYPE":"0","APOAPSIS":"548.217","SEMIMAJOR_AXIS":"6925.275","ELEMENT_SET_NO":"999","MEAN_MOTION":"15.06424104","ARG_OF_PERICENTER":"62.1541","RA_OF_ASC_NODE":"339.6242","OBJECT_ID":"2020-006BK","OBJECT_TYPE":"PAYLOAD","TLE_LINE1":"1 45101U 20006BK  22065.49686867  .00006057  00000-0  42493-3 0  9991","BSTAR":"0.00042493000000","FILE":"3347638","ECCENTRICITY":"0.00015560","TLE_LINE2":"2 45101  53.0547 339.6242 0001556  62.1541 297.9605 15.06424104116331","RCS_SIZE":"LARGE","MEAN_MOTION_DDOT":"0.0000000000000","NORAD_CAT_ID":"45101","MEAN_MOTION_DOT":"0.00006057","OBJECT_NAME":"STARLINK-1194","CENTER_NAME":"EARTH","SITE":"AFETR","TIME_SYSTEM":"UTC","GP_ID":"198064628","PERIAPSIS":"546.062","MEAN_ANOMALY":"297.9605","COUNTRY_CODE":"US","CLASSIFICATION_TYPE":"U","INCLINATION":"53.0547","LAUNCH_DATE":"2020-01-29","EPOCH":"2022-03-06T11:55:29.453088","REF_FRAME":"TEME","REV_AT_EPOCH":"11633","DECAY_DATE":null},{"CLASSIFICATION_TYPE":"U","INCLINATION":"53.0530","LAUNCH_DATE":"2020-01-29","EPOCH":"2022-03-06T10:51:48.007872","REF_FRAME":"TEME","REV_AT_EPOCH":"11632","DECAY_DATE":null,"GP_ID":"198064878","PERIAPSIS":"546.084","MEAN_ANOMALY":"295.4144","COUNTRY_CODE":"US","FILE":"3347638","ECCENTRICITY":"0.00015950","TLE_LINE2":"2 45102  53.0530 339.8490 0001595  64.7010 295.4144 15.06408069116325","RCS_SIZE":"LARGE","MEAN_MOTION_DDOT":"0.0000000000000","NORAD_CAT_ID":"45102","MEAN_MOTION_DOT":"0.00002030","OBJECT_NAME":"STARLINK-1195","CENTER_NAME":"EARTH","TIME_SYSTEM":"UTC","SITE":"AFETR","PERIOD":"95.592","MEAN_ELEMENT_THEORY":"SGP4","EPHEMERIS_TYPE":"0","APOAPSIS":"548.293","SEMIMAJOR_AXIS":"6925.324","ELEMENT_SET_NO":"999","MEAN_MOTION":"15.06408069","ARG_OF_PERICENTER":"64.7010","RA_OF_ASC_NODE":"339.8490","OBJECT_TYPE":"PAYLOAD","OBJECT_ID":"2020-006BL","TLE_LINE1":"1 45102U 20006BL  22065.45263898  .00002030  00000-0  15511-3 0  9991","BSTAR":"0.00015511000000"},{"EPOCH":"2022-03-06T13:13:45.344064","INCLINATION":"53.0509","LAUNCH_DATE":"2020-01-29","CLASSIFICATION_TYPE":"U","DECAY_DATE":null,"REV_AT_EPOCH":"11634","REF_FRAME":"TEME","GP_ID":"198065630","COUNTRY_CODE":"US","MEAN_ANOMALY":"284.9675","PERIAPSIS":"546.160","NORAD_CAT_ID":"45103","MEAN_MOTION_DDOT":"0.0000000000000","RCS_SIZE":"LARGE","TLE_LINE2":"2 45103  53.0509 339.4605 0001486  75.1478 284.9675 15.06407914116341","ECCENTRICITY":"0.00014860","FILE":"3347638","TIME_SYSTEM":"UTC","SITE":"AFETR","OBJECT_NAME":"STARLINK-1196","CENTER_NAME":"EARTH","MEAN_MOTION_DOT":"0.00002031","SEMIMAJOR_AXIS":"6925.324","APOAPSIS":"548.218","EPHEMERIS_TYPE":"0","MEAN_ELEMENT_THEORY":"SGP4","PERIOD":"95.592","BSTAR":"0.00015520000000","TLE_LINE1":"1 45103U 20006BM  22065.55121926  .00002031  00000-0  15520-3 0  9999","OBJECT_TYPE":"PAYLOAD","OBJECT_ID":"2020-006BM","RA_OF_ASC_NODE":"339.4605","ARG_OF_PERICENTER":"75.1478","MEAN_MOTION":"15.06407914","ELEMENT_SET_NO":"999"}];
